ORBCOMM-X               
1 21576U 91050C   25149.45070143  .00000335  00000+0  11238-3 0  9999
2 21576  98.3441 216.4299 0002584 228.6385 131.4583 14.43248349779413
ORBCOMM FM01            
1 23545U 95017A   25150.20800586  .00007453  00000+0  78208-3 0  9999
2 23545  69.9625 118.9606 0004858 303.5659  56.5032 14.89870004610183
ORBCOMM FM02            
1 23546U 95017B   25149.69106617  .00008516  00000+0  87454-3 0  9999
2 23546  69.9632 139.6977 0006146 312.8649  47.1989 14.90670743609407
ORBCOMM FM08            
1 25112U 97084A   25149.24746538  .00001480  00000+0  45392-3 0  9997
2 25112  45.0136  98.7781 0004402 156.4607 203.6446 14.45753221438634
ORBCOMM FM10            
1 25113U 97084B   25150.19335526  .00001606  00000+0  49146-3 0  9996
2 25113  45.0150  96.5870 0003040 108.8340 251.2841 14.45545257438926
ORBCOMM FM11            
1 25114U 97084C   25150.19478956  .00001586  00000+0  48811-3 0  9997
2 25114  45.0136  97.1803 0003790 114.2746 245.8501 14.45298180438907
ORBCOMM FM12            
1 25115U 97084D   25149.53545156  .00001405  00000+0  43705-3 0  9998
2 25115  45.0141 100.0951 0002818 101.8870 258.2297 14.45316540438576
ORBCOMM FM09            
1 25116U 97084E   25149.84267428  .00001393  00000+0  43461-3 0  9991
2 25116  45.0145  99.5357 0004378  94.3215 265.8136 14.45194236438825
